[{"OBJECT_NAME":"STARLINK-30267","OBJECT_ID":"2023-124A","EPOCH":"2026-03-09T16:23:58.085088","MEAN_MOTION":15.3019399,"ECCENTRICITY":8.421e-5,"INCLINATION":53.1593,"RA_OF_ASC_NODE":207.0548,"ARG_OF_PERICENTER":72.3184,"MEAN_ANOMALY":287.7909,"EPHEMERIS_TYPE":0,"CLASSIFICATION_TYPE":"U","NORAD_CAT_ID":57663,"ELEMENT_SET_NO":999,"REV_AT_EPOCH":14356,"BSTAR":-3.6713404e-5,"MEAN_MOTION_DOT":-1.446e-5,"MEAN_MOTION_DDOT":0},{"OBJECT_NAME":"STARLINK-31704","OBJECT_ID":"2024-076Y","EPOCH":"2026-03-09T22:00:01.999584","MEAN_MOTION":15.30892355,"ECCENTRICITY":0.00079744,"INCLINATION":42.9978,"RA_OF_ASC_NODE":323.2923,"ARG_OF_PERICENTER":240.5046,"MEAN_ANOMALY":200.4144,"EPHEMERIS_TYPE":0,"CLASSIFICATION_TYPE":"U","NORAD_CAT_ID":59586,"ELEMENT_SET_NO":999,"REV_AT_EPOCH":581,"BSTAR":0.0024766131,"MEAN_MOTION_DOT":0.00076042,"MEAN_MOTION_DDOT":0}]
